[{"OBJECT_NAME":"AT&T T-16","OBJECT_ID":"2019-034A","EPOCH":"2026-03-02T15:20:38.940576","MEAN_MOTION":1.00268365,"ECCENTRICITY":7.19e-5,"INCLINATION":0.021,"RA_OF_ASC_NODE":101.4606,"ARG_OF_PERICENTER":73.8859,"MEAN_ANOMALY":114.3516,"EPHEMERIS_TYPE":0,"CLASSIFICATION_TYPE":"U","NORAD_CAT_ID":44333,"ELEMENT_SET_NO":999,"REV_AT_EPOCH":2456,"BSTAR":0,"MEAN_MOTION_DOT":-1.31e-6,"MEAN_MOTION_DDOT":0},{"OBJECT_NAME":"EUTELSAT 7C","OBJECT_ID":"2019-034B","EPOCH":"2026-03-02T09:26:38.658336","MEAN_MOTION":1.00270229,"ECCENTRICITY":0.00033706,"INCLINATION":0.0725,"RA_OF_ASC_NODE":178.9133,"ARG_OF_PERICENTER":147.8289,"MEAN_ANOMALY":342.0592,"EPHEMERIS_TYPE":0,"CLASSIFICATION_TYPE":"U","NORAD_CAT_ID":44334,"ELEMENT_SET_NO":999,"REV_AT_EPOCH":576,"BSTAR":0,"MEAN_MOTION_DOT":3.0e-7,"MEAN_MOTION_DDOT":0},{"OBJECT_NAME":"BEIDOU-3 IGSO-2","OBJECT_ID":"2019-035A","EPOCH":"2026-02-26T16:31:51.989952","MEAN_MOTION":1.00247364,"ECCENTRICITY":0.00387345,"INCLINATION":55.2338,"RA_OF_ASC_NODE":159.8353,"ARG_OF_PERICENTER":206.4752,"MEAN_ANOMALY":153.7223,"EPHEMERIS_TYPE":0,"CLASSIFICATION_TYPE":"U","NORAD_CAT_ID":44337,"ELEMENT_SET_NO":999,"REV_AT_EPOCH":2456,"BSTAR":0,"MEAN_MOTION_DOT":-1.76e-6,"MEAN_MOTION_DDOT":0},{"OBJECT_NAME":"COSMOS 2539","OBJECT_ID":"2019-048A","EPOCH":"2026-03-02T21:49:00.103008","MEAN_MOTION":1.00265573,"ECCENTRICITY":6.37e-5,"INCLINATION":0.0178,"RA_OF_ASC_NODE":115.8098,"ARG_OF_PERICENTER":224.8779,"MEAN_ANOMALY":159.2001,"EPHEMERIS_TYPE":0,"CLASSIFICATION_TYPE":"U","NORAD_CAT_ID":44457,"ELEMENT_SET_NO":999,"REV_AT_EPOCH":2416,"BSTAR":0,"MEAN_MOTION_DOT":6.3e-7,"MEAN_MOTION_DDOT":0},{"OBJECT_NAME":"EDRS-C","OBJECT_ID":"2019-049A","EPOCH":"2026-03-02T20:00:38.438208","MEAN_MOTION":1.00272553,"ECCENTRICITY":0.0001302,"INCLINATION":0.0269,"RA_OF_ASC_NODE":123.914,"ARG_OF_PERICENTER":217.0025,"MEAN_ANOMALY":262.3325,"EPHEMERIS_TYPE":0,"CLASSIFICATION_TYPE":"U","NORAD_CAT_ID":44475,"ELEMENT_SET_NO":999,"REV_AT_EPOCH":2414,"BSTAR":0,"MEAN_MOTION_DOT":-2.79e-6,"MEAN_MOTION_DDOT":0},{"OBJECT_NAME":"INTELSAT 39 (IS-39)","OBJECT_ID":"2019-049B","EPOCH":"2026-03-02T09:31:38.538048","MEAN_MOTION":1.00269151,"ECCENTRICITY":6.167e-5,"INCLINATION":0.0272,"RA_OF_ASC_NODE":143.6954,"ARG_OF_PERICENTER":12.8828,"MEAN_ANOMALY":208.4639,"EPHEMERIS_TYPE":0,"CLASSIFICATION_TYPE":"U","NORAD_CAT_ID":44476,"ELEMENT_SET_NO":999,"REV_AT_EPOCH":2405,"BSTAR":0,"MEAN_MOTION_DOT":0,"MEAN_MOTION_DDOT":0},{"OBJECT_NAME":"AMOS-17","OBJECT_ID":"2019-050A","EPOCH":"2026-03-02T17:37:06.351456","MEAN_MOTION":1.00270143,"ECCENTRICITY":0.0001653,"INCLINATION":0.0383,"RA_OF_ASC_NODE":290.8357,"ARG_OF_PERICENTER":43.0647,"MEAN_ANOMALY":107.8562,"EPHEMERIS_TYPE":0,"CLASSIFICATION_TYPE":"U","NORAD_CAT_ID":44479,"ELEMENT_SET_NO":999,"REV_AT_EPOCH":2411,"BSTAR":0,"MEAN_MOTION_DOT":9.2e-7,"MEAN_MOTION_DDOT":0},{"OBJECT_NAME":"AEHF-5 (USA 292)","OBJECT_ID":"2019-051A","EPOCH":"2026-03-02T19:12:05.931360","MEAN_MOTION":1.00272448,"ECCENTRICITY":0.007163,"INCLINATION":1.5655,"RA_OF_ASC_NODE":328.6252,"ARG_OF_PERICENTER":3.237,"MEAN_ANOMALY":209.8154,"EPHEMERIS_TYPE":0,"CLASSIFICATION_TYPE":"U","NORAD_CAT_ID":44481,"ELEMENT_SET_NO":999,"REV_AT_EPOCH":2419,"BSTAR":0,"MEAN_MOTION_DOT":-2.74e-6,"MEAN_MOTION_DDOT":0},{"OBJECT_NAME":"EUTELSAT 5 WEST B","OBJECT_ID":"2019-067A","EPOCH":"2026-03-02T17:30:51.948288","MEAN_MOTION":1.00272251,"ECCENTRICITY":0.0003199,"INCLINATION":0.098,"RA_OF_ASC_NODE":308.3073,"ARG_OF_PERICENTER":40.6033,"MEAN_ANOMALY":69.2675,"EPHEMERIS_TYPE":0,"CLASSIFICATION_TYPE":"U","NORAD_CAT_ID":44624,"ELEMENT_SET_NO":999,"REV_AT_EPOCH":2336,"BSTAR":0,"MEAN_MOTION_DOT":-5.9e-7,"MEAN_MOTION_DDOT":0},{"OBJECT_NAME":"MEV-1","OBJECT_ID":"2019-067B","EPOCH":"2026-02-26T20:08:46.258656","MEAN_MOTION":1.00269845,"ECCENTRICITY":0.0003215,"INCLINATION":0.8853,"RA_OF_ASC_NODE":269.7923,"ARG_OF_PERICENTER":58.449,"MEAN_ANOMALY":286.7172,"EPHEMERIS_TYPE":0,"CLASSIFICATION_TYPE":"U","NORAD_CAT_ID":44625,"ELEMENT_SET_NO":999,"REV_AT_EPOCH":6047,"BSTAR":0,"MEAN_MOTION_DOT":-1.6e-6,"MEAN_MOTION_DDOT":0},{"OBJECT_NAME":"TJS-4","OBJECT_ID":"2019-070A","EPOCH":"2026-03-02T16:23:03.201216","MEAN_MOTION":1.00270449,"ECCENTRICITY":0.0007392,"INCLINATION":0.0736,"RA_OF_ASC_NODE":276.6406,"ARG_OF_PERICENTER":94.5789,"MEAN_ANOMALY":118.5104,"EPHEMERIS_TYPE":0,"CLASSIFICATION_TYPE":"U","NORAD_CAT_ID":44637,"ELEMENT_SET_NO":999,"REV_AT_EPOCH":2340,"BSTAR":0,"MEAN_MOTION_DOT":-1.86e-6,"MEAN_MOTION_DDOT":0},{"OBJECT_NAME":"BEIDOU-3 IGSO-3","OBJECT_ID":"2019-073A","EPOCH":"2026-03-02T00:11:14.843616","MEAN_MOTION":1.00270082,"ECCENTRICITY":0.00404374,"INCLINATION":54.9822,"RA_OF_ASC_NODE":282.0561,"ARG_OF_PERICENTER":189.0682,"MEAN_ANOMALY":170.9277,"EPHEMERIS_TYPE":0,"CLASSIFICATION_TYPE":"U","NORAD_CAT_ID":44709,"ELEMENT_SET_NO":999,"REV_AT_EPOCH":2338,"BSTAR":0,"MEAN_MOTION_DOT":-1.49e-6,"MEAN_MOTION_DDOT":0},{"OBJECT_NAME":"TIBA-1","OBJECT_ID":"2019-080A","EPOCH":"2026-03-02T17:42:28.335744","MEAN_MOTION":1.00275213,"ECCENTRICITY":0.0001934,"INCLINATION":0.0535,"RA_OF_ASC_NODE":342.3073,"ARG_OF_PERICENTER":358.5671,"MEAN_ANOMALY":120.7502,"EPHEMERIS_TYPE":0,"CLASSIFICATION_TYPE":"U","NORAD_CAT_ID":44800,"ELEMENT_SET_NO":999,"REV_AT_EPOCH":2299,"BSTAR":0,"MEAN_MOTION_DOT":1.39e-6,"MEAN_MOTION_DDOT":0},{"OBJECT_NAME":"INMARSAT GX5","OBJECT_ID":"2019-080B","EPOCH":"2026-03-02T19:45:02.763360","MEAN_MOTION":1.00271127,"ECCENTRICITY":0.0001953,"INCLINATION":0.0485,"RA_OF_ASC_NODE":10.5358,"ARG_OF_PERICENTER":333.3418,"MEAN_ANOMALY":123.9483,"EPHEMERIS_TYPE":0,"CLASSIFICATION_TYPE":"U","NORAD_CAT_ID":44801,"ELEMENT_SET_NO":999,"REV_AT_EPOCH":572,"BSTAR":0,"MEAN_MOTION_DOT":5.8e-7,"MEAN_MOTION_DDOT":0},{"OBJECT_NAME":"JCSAT-18 (KACIFIC 1)","OBJECT_ID":"2019-091A","EPOCH":"2026-03-02T19:53:38.746752","MEAN_MOTION":1.00271459,"ECCENTRICITY":2.12e-5,"INCLINATION":0.0421,"RA_OF_ASC_NODE":306.01,"ARG_OF_PERICENTER":18.0065,"MEAN_ANOMALY":285.0089,"EPHEMERIS_TYPE":0,"CLASSIFICATION_TYPE":"U","NORAD_CAT_ID":44868,"ELEMENT_SET_NO":999,"REV_AT_EPOCH":2294,"BSTAR":0,"MEAN_MOTION_DOT":-2.17e-6,"MEAN_MOTION_DDOT":0},{"OBJECT_NAME":"ELEKTRO-L 3","OBJECT_ID":"2019-095A","EPOCH":"2026-03-02T21:21:50.425344","MEAN_MOTION":1.00270222,"ECCENTRICITY":0.0001703,"INCLINATION":0.0318,"RA_OF_ASC_NODE":324.4879,"ARG_OF_PERICENTER":358.3374,"MEAN_ANOMALY":234.2532,"EPHEMERIS_TYPE":0,"CLASSIFICATION_TYPE":"U","NORAD_CAT_ID":44903,"ELEMENT_SET_NO":999,"REV_AT_EPOCH":2264,"BSTAR":0,"MEAN_MOTION_DOT":-1.12e-6,"MEAN_MOTION_DDOT":0},{"OBJECT_NAME":"SHIJIAN-20 (SJ-20)","OBJECT_ID":"2019-097A","EPOCH":"2026-03-02T17:12:51.453216","MEAN_MOTION":1.0008295,"ECCENTRICITY":1.24e-5,"INCLINATION":4.6452,"RA_OF_ASC_NODE":76.3699,"ARG_OF_PERICENTER":16.2606,"MEAN_ANOMALY":43.3034,"EPHEMERIS_TYPE":0,"CLASSIFICATION_TYPE":"U","NORAD_CAT_ID":44910,"ELEMENT_SET_NO":999,"REV_AT_EPOCH":2263,"BSTAR":0,"MEAN_MOTION_DOT":-8.2e-7,"MEAN_MOTION_DDOT":0}]
