AT&T T-16               
1 44333U 19034A   26061.63933959 -.00000131  00000+0  00000+0 0  9990
2 44333   0.0210 101.4606 0000719  73.8859 114.3516  1.00268365 24566
EUTELSAT 7C             
1 44334U 19034B   26061.39350299  .00000030  00000+0  00000+0 0  9991
2 44334   0.0725 178.9133 0003370 147.8289 342.0592  1.00270229  5764
BEIDOU-3 IGSO-2         
1 44337U 19035A   26057.68879618 -.00000176  00000+0  00000+0 0  9995
2 44337  55.2338 159.8353 0038734 206.4752 153.7223  1.00247364 24561
COSMOS 2539             
1 44457U 19048A   26061.90902897  .00000063  00000+0  00000+0 0  9992
2 44457   0.0178 115.8098 0000637 224.8779 159.2001  1.00265573 24169
EDRS-C                  
1 44475U 19049A   26061.83377822 -.00000279  00000+0  00000+0 0  9999
2 44475   0.0269 123.9140 0001302 217.0025 262.3325  1.00272553 24145
INTELSAT 39 (IS-39)     
1 44476U 19049B   26061.39697382  .00000000  00000+0  00000+0 0  9998
2 44476   0.0272 143.6954 0000616  12.8828 208.4639  1.00269151 24050
AMOS-17                 
1 44479U 19050A   26061.73410129  .00000092  00000+0  00000+0 0  9994
2 44479   0.0383 290.8357 0001653  43.0647 107.8562  1.00270143 24112
AEHF-5 (USA 292)        
1 44481U 19051A   26061.80006865 -.00000274  00000+0  00000+0 0  9997
2 44481   1.5655 328.6252 0071630   3.2370 209.8154  1.00272448 24198
EUTELSAT 5 WEST B       
1 44624U 19067A   26061.72976792 -.00000059  00000+0  00000+0 0  9990
2 44624   0.0980 308.3073 0003199  40.6033  69.2675  1.00272251 23360
MEV-1                   
1 44625U 19067B   26057.83942429 -.00000160  00000+0  00000+0 0  9991
2 44625   0.8853 269.7923 0003215  58.4490 286.7172  1.00269845 60471
TJS-4                   
1 44637U 19070A   26061.68267594 -.00000186  00000+0  00000+0 0  9997
2 44637   0.0736 276.6406 0007392  94.5789 118.5104  1.00270449 23402
BEIDOU-3 IGSO-3         
1 44709U 19073A   26061.00781069 -.00000149  00000+0  00000+0 0  9993
2 44709  54.9822 282.0561 0040437 189.0682 170.9277  1.00270082 23381
TIBA-1                  
1 44800U 19080A   26061.73782796  .00000139  00000+0  00000+0 0  9999
2 44800   0.0535 342.3073 0001934 358.5671 120.7502  1.00275213 22995
INMARSAT GX5            
1 44801U 19080B   26061.82294865  .00000058  00000+0  00000+0 0  9995
2 44801   0.0485  10.5358 0001953 333.3418 123.9483  1.00271127  5726
JCSAT-18 (KACIFIC 1)    
1 44868U 19091A   26061.82892068 -.00000217  00000+0  00000+0 0  9997
2 44868   0.0421 306.0100 0000212  18.0065 285.0089  1.00271459 22942
ELEKTRO-L 3             
1 44903U 19095A   26061.89016696 -.00000112  00000+0  00000+0 0  9997
2 44903   0.0318 324.4879 0001703 358.3374 234.2532  1.00270222 22646
SHIJIAN-20 (SJ-20)      
1 44910U 19097A   26061.71726219 -.00000082  00000+0  00000+0 0  9993
2 44910   4.6452  76.3699 0000124  16.2606  43.3034  1.00082950 22634
